[{"OBJECT_NAME":"STARLINK-34532","OBJECT_ID":"2025-137P","EPOCH":"2026-03-09T04:17:42.035136","MEAN_MOTION":15.30169384,"ECCENTRICITY":9.777e-5,"INCLINATION":53.161,"RA_OF_ASC_NODE":347.7638,"ARG_OF_PERICENTER":85.525,"MEAN_ANOMALY":274.5862,"EPHEMERIS_TYPE":0,"CLASSIFICATION_TYPE":"U","NORAD_CAT_ID":64607,"ELEMENT_SET_NO":999,"REV_AT_EPOCH":4051,"BSTAR":0.00093628197,"MEAN_MOTION_DOT":0.00027447,"MEAN_MOTION_DDOT":0},{"OBJECT_NAME":"CZ-4B R\/B","OBJECT_ID":"2010-051C","EPOCH":"2026-03-09T16:48:37.977120","MEAN_MOTION":15.17426017,"ECCENTRICITY":0.00758037,"INCLINATION":97.7974,"RA_OF_ASC_NODE":110.8647,"ARG_OF_PERICENTER":95.044,"MEAN_ANOMALY":265.9451,"EPHEMERIS_TYPE":0,"CLASSIFICATION_TYPE":"U","NORAD_CAT_ID":37181,"ELEMENT_SET_NO":999,"REV_AT_EPOCH":84355,"BSTAR":0.00029718512,"MEAN_MOTION_DOT":6.328e-5,"MEAN_MOTION_DDOT":0}]
